{
  "type": "FeatureCollection",
  "features": [
    {
      "type": "Feature",
      "properties": {
        "norad_id": 35961,
        "name": "COSMOS 2251 DEB",
        "group": "cosmos-2251-debris",
        "lat": -29.662107990973237,
        "lon": 13.11011144446104,
        "alt_km": 893.2339711931709,
        "timestamp": "2025-12-24T09:46:31.401959+00:00",
        "meta_object_name": "COSMOS 2251 DEB",
        "meta_object_id": "1993-036AVB",
        "meta_epoch": "2025-12-23T19:07:42.767328",
        "meta_mean_motion": 14.05444821,
        "meta_eccentricity": 0.01917264,
        "meta_inclination": 73.9256,
        "meta_ra_of_asc_node": 184.7319,
        "meta_arg_of_pericenter": 115.7574,
        "meta_mean_anomaly": 246.3488,
        "meta_ephemeris_type": 0,
        "meta_classification_type": "U",
        "meta_norad_cat_id": 35961,
        "meta_element_set_no": 999,
        "meta_rev_at_epoch": 62837,
        "meta_bstar": 0.0013269491,
        "meta_mean_motion_dot": 2.518e-05,
        "meta_mean_motion_ddot": 0,
        "tle_line1": "1 35961U 93036AVB 25357.79702277  .00002518  00000+0  13269-2 0  9996",
        "tle_line2": "2 35961  73.9256 184.7319 0191726 115.7574 246.3488 14.05444821628371"
      },
      "geometry": {
        "type": "Point",
        "coordinates": [
          13.11011144446104,
          -29.662107990973237
        ]
      }
    },
    {
      "type": "Feature",
      "properties": {
        "norad_id": 35979,
        "name": "COSMOS 2251 DEB",
        "group": "cosmos-2251-debris",
        "lat": 51.644663284002746,
        "lon": 14.308136818729594,
        "alt_km": 672.700893745332,
        "timestamp": "2025-12-24T09:46:31.401969+00:00",
        "meta_object_name": "COSMOS 2251 DEB",
        "meta_object_id": "1993-036AVV",
        "meta_epoch": "2025-12-22T21:28:01.748352",
        "meta_mean_motion": 14.74747539,
        "meta_eccentricity": 0.0059307,
        "meta_inclination": 74.008,
        "meta_ra_of_asc_node": 218.5159,
        "meta_arg_of_pericenter": 348.3492,
        "meta_mean_anomaly": 27.9615,
        "meta_ephemeris_type": 0,
        "meta_classification_type": "U",
        "meta_norad_cat_id": 35979,
        "meta_element_set_no": 999,
        "meta_rev_at_epoch": 88783,
        "meta_bstar": 0.00076773,
        "meta_mean_motion_dot": 5.251e-05,
        "meta_mean_motion_ddot": 0,
        "tle_line1": "1 35979U 93036AVV 25356.89446468  .00005251  00000+0  76773-3 0  9999",
        "tle_line2": "2 35979  74.0080 218.5159 0059307 348.3492  27.9615 14.74747539887837"
      },
      "geometry": {
        "type": "Point",
        "coordinates": [
          14.308136818729594,
          51.644663284002746
        ]
      }
    },
    {
      "type": "Feature",
      "properties": {
        "norad_id": 35980,
        "name": "COSMOS 2251 DEB",
        "group": "cosmos-2251-debris",
        "lat": 70.97044547106997,
        "lon": 157.06860711369478,
        "alt_km": 721.7593040951442,
        "timestamp": "2025-12-24T09:46:31.401980+00:00",
        "meta_object_name": "COSMOS 2251 DEB",
        "meta_object_id": "1993-036AVW",
        "meta_epoch": "2025-12-21T00:47:41.997408",
        "meta_mean_motion": 14.59403711,
        "meta_eccentricity": 0.00538655,
        "meta_inclination": 73.9127,
        "meta_ra_of_asc_node": 106.7527,
        "meta_arg_of_pericenter": 240.1949,
        "meta_mean_anomaly": 119.3854,
        "meta_ephemeris_type": 0,
        "meta_classification_type": "U",
        "meta_norad_cat_id": 35980,
        "meta_element_set_no": 999,
        "meta_rev_at_epoch": 61607,
        "meta_bstar": 0.00094415254,
        "meta_mean_motion_dot": 4.534e-05,
        "meta_mean_motion_ddot": 0,
        "tle_line1": "1 35980U 93036AVW 25355.03312497  .00004534  00000+0  94415-3 0  9996",
        "tle_line2": "2 35980  73.9127 106.7527 0053865 240.1949 119.3854 14.59403711616076"
      },
      "geometry": {
        "type": "Point",
        "coordinates": [
          157.06860711369478,
          70.97044547106997
        ]
      }
    },
    {
      "type": "Feature",
      "properties": {
        "norad_id": 35982,
        "name": "COSMOS 2251 DEB",
        "group": "cosmos-2251-debris",
        "lat": 31.24012940742316,
        "lon": 134.60857480984117,
        "alt_km": 704.4394774877373,
        "timestamp": "2025-12-24T09:46:31.401990+00:00",
        "meta_object_name": "COSMOS 2251 DEB",
        "meta_object_id": "1993-036AVY",
        "meta_epoch": "2025-12-24T04:11:05.846208",
        "meta_mean_motion": 14.628153,
        "meta_eccentricity": 0.0064554,
        "meta_inclination": 74.0585,
        "meta_ra_of_asc_node": 325.0386,
        "meta_arg_of_pericenter": 27.9995,
        "meta_mean_anomaly": 332.4619,
        "meta_ephemeris_type": 0,
        "meta_classification_type": "U",
        "meta_norad_cat_id": 35982,
        "meta_element_set_no": 999,
        "meta_rev_at_epoch": 86333,
        "meta_bstar": 0.0006629,
        "meta_mean_motion_dot": 3.457e-05,
        "meta_mean_motion_ddot": 0,
        "tle_line1": "1 35982U 93036AVY 25358.17437322  .00003457  00000+0  66290-3 0  9994",
        "tle_line2": "2 35982  74.0585 325.0386 0064554  27.9995 332.4619 14.62815300863331"
      },
      "geometry": {
        "type": "Point",
        "coordinates": [
          134.60857480984117,
          31.24012940742316
        ]
      }
    },
    {
      "type": "Feature",
      "properties": {
        "norad_id": 35987,
        "name": "COSMOS 2251 DEB",
        "group": "cosmos-2251-debris",
        "lat": 34.4081072980614,
        "lon": -43.743487849926964,
        "alt_km": 716.9692785700499,
        "timestamp": "2025-12-24T09:46:31.402000+00:00",
        "meta_object_name": "COSMOS 2251 DEB",
        "meta_object_id": "1993-036AWD",
        "meta_epoch": "2025-12-24T02:57:19.908576",
        "meta_mean_motion": 14.43193556,
        "meta_eccentricity": 0.0046371,
        "meta_inclination": 74.0006,
        "meta_ra_of_asc_node": 305.4518,
        "meta_arg_of_pericenter": 67.5999,
        "meta_mean_anomaly": 293.006,
        "meta_ephemeris_type": 0,
        "meta_classification_type": "U",
        "meta_norad_cat_id": 35987,
        "meta_element_set_no": 999,
        "meta_rev_at_epoch": 61229,
        "meta_bstar": 0.0010351,
        "meta_mean_motion_dot": 3.5e-05,
        "meta_mean_motion_ddot": 0,
        "tle_line1": "1 35987U 93036AWD 25358.12314709  .00003500  00000+0  10351-2 0  9992",
        "tle_line2": "2 35987  74.0006 305.4518 0046371  67.5999 293.0060 14.43193556612294"
      },
      "geometry": {
        "type": "Point",
        "coordinates": [
          -43.743487849926964,
          34.4081072980614
        ]
      }
    },
    {
      "type": "Feature",
      "properties": {
        "norad_id": 35989,
        "name": "COSMOS 2251 DEB",
        "group": "cosmos-2251-debris",
        "lat": -7.051992625469784,
        "lon": 84.40672841285928,
        "alt_km": 785.936326117232,
        "timestamp": "2025-12-24T09:46:31.402011+00:00",
        "meta_object_name": "COSMOS 2251 DEB",
        "meta_object_id": "1993-036AWF",
        "meta_epoch": "2025-12-21T00:42:48.161376",
        "meta_mean_motion": 14.37112482,
        "meta_eccentricity": 0.00223748,
        "meta_inclination": 74.0376,
        "meta_ra_of_asc_node": 268.5863,
        "meta_arg_of_pericenter": 348.5916,
        "meta_mean_anomaly": 11.4727,
        "meta_ephemeris_type": 0,
        "meta_classification_type": "U",
        "meta_norad_cat_id": 35989,
        "meta_element_set_no": 999,
        "meta_rev_at_epoch": 87298,
        "meta_bstar": 0.00015604931,
        "meta_mean_motion_dot": 4.39e-06,
        "meta_mean_motion_ddot": 0,
        "tle_line1": "1 35989U 93036AWF 25355.02972409  .00000439  00000+0  15605-3 0  9993",
        "tle_line2": "2 35989  74.0376 268.5863 0022374 348.5916  11.4727 14.37112482872984"
      },
      "geometry": {
        "type": "Point",
        "coordinates": [
          84.40672841285928,
          -7.051992625469784
        ]
      }
    },
    {
      "type": "Feature",
      "properties": {
        "norad_id": 35993,
        "name": "COSMOS 2251 DEB",
        "group": "cosmos-2251-debris",
        "lat": 8.828730737532622,
        "lon": 127.76319696830535,
        "alt_km": 660.6742795798091,
        "timestamp": "2025-12-24T09:46:31.402021+00:00",
        "meta_object_name": "COSMOS 2251 DEB",
        "meta_object_id": "1993-036AWK",
        "meta_epoch": "2025-12-21T03:59:29.501088",
        "meta_mean_motion": 14.65356197,
        "meta_eccentricity": 0.0028516,
        "meta_inclination": 74.0154,
        "meta_ra_of_asc_node": 316.5577,
        "meta_arg_of_pericenter": 143.4068,
        "meta_mean_anomaly": 216.9056,
        "meta_ephemeris_type": 0,
        "meta_classification_type": "U",
        "meta_norad_cat_id": 35993,
        "meta_element_set_no": 999,
        "meta_rev_at_epoch": 60566,
        "meta_bstar": 0.00046927088,
        "meta_mean_motion_dot": 2.519e-05,
        "meta_mean_motion_ddot": 0,
        "tle_line1": "1 35993U 93036AWK 25355.16631367  .00002519  00000+0  46927-3 0  9990",
        "tle_line2": "2 35993  74.0154 316.5577 0028516 143.4068 216.9056 14.65356197605663"
      },
      "geometry": {
        "type": "Point",
        "coordinates": [
          127.76319696830535,
          8.828730737532622
        ]
      }
    }
  ]
}